# From MPC106342
C/1995 O1 (Hale-Bopp),e,89.2488,282.8146,130.4169,177.1834,0.0004179,0.99497099,0.0000,03/29.6627/1997,2000,g -2.0,4.0
# From NK 1615
P/1996 R2 (Lagerkvist),e,2.6009,40.0096,333.3768,3.774670,0.1343957,0.31453457,167.6365,07/14.0/2022,2000,g 11.5,4.0
# From MPC 75703
P/1998 VS24 (LINEAR),e,5.0266,159.0409,244.6084,4.525934,0.1023627,0.24299159,167.5131,07/14.0/2022,2000,g 13.0,2.0
# From NK 731
P/1999 RO28 (LONEOS),e,7.5663,137.8785,231.2847,3.426547,0.1553885,0.67250268,172.9794,07/14.0/2022,2000,g 20.0,2.0
# From MPC 75704
P/1999 XN120 (Catalina),e,5.0298,285.2963,161.7075,4.179034,0.1153693,0.21032788,214.8060,07/14.0/2022,2000,g 13.5,2.0
# From NK 744
P/2000 R2 (LINEAR),e,11.6873,160.2854,176.5807,3.467474,0.1526456,0.53150735,171.2978,07/14.0/2022,2000,g 18.0,4.0
# From MPC 43019
P/2001 H5 (NEAT),e,8.3671,328.6845,224.7648,6.096331,0.0654789,0.59819994,161.3439,07/14.0/2022,2000,g 12.0,4.0
# From MPC 75704
P/2001 Q6 (NEAT),e,56.9115,22.1834,42.9336,7.957574,0.0439069,0.82328001,333.8998,07/14.0/2022,2000,g 13.5,4.0
# From MPC 47727
P/2002 EJ57 (LINEAR),e,4.9770,330.3144,167.3019,6.464807,0.0599613,0.59231141,89.1993,07/14.0/2022,2000,g 12.5,4.0
# From MPC109588
P/2002 T6 (NEAT-LINEAR),e,10.8490,206.0911,219.5953,7.718930,0.0459588,0.56206006,326.1140,07/14.0/2022,2000,g 10.5,4.0
# From MPC 75007
C/2002 VQ94 (LINEAR),e,70.6786,35.1272,100.0139,184.3001,0.0003939,0.96303402,2.3675,07/14.0/2022,2000,g  9.5,2.0
# From MPC 50354
P/2003 F2 (NEAT),e,11.6098,359.0004,192.2550,6.502539,0.0594401,0.54152513,57.9342,07/14.0/2022,2000,g 16.5,2.0
# From MPC 50139
P/2003 QX29 (NEAT),e,11.3924,264.5250,37.6359,8.018063,0.0434110,0.47268795,311.4097,07/14.0/2022,2000,g  8.5,4.0
# From MPC105235
P/2003 T12 (SOHO),e,11.0226,174.5865,219.7452,2.585576,0.2370653,0.77007400,189.1420,07/14.0/2022,2000,g 17.0,4.0
# From MPC 82312
P/2004 A1 (LONEOS),e,10.5517,124.8568,21.1231,7.969289,0.0438101,0.30983856,287.7339,07/14.0/2022,2000,g  6.5,4.0
# From MPC 54558
P/2004 DO29 (Spacewatch-LINEAR),e,14.5318,147.3746,40.5427,7.293162,0.0500415,0.44117758,325.4230,07/14.0/2022,2000,g 13.5,2.0
# From MPC 54823
P/2004 FY140 (LINEAR),e,2.1348,326.7760,242.1753,4.906201,0.0906956,0.16786694,231.5284,07/14.0/2022,2000,g 12.5,2.0
# From MPC 53304
P/2004 R3 (LINEAR-NEAT),e,12.7818,305.3410,37.7377,4.767564,0.0946802,0.25614037,28.0227,07/14.0/2022,2000,g 14.5,4.0
# From MPC 55521
P/2004 V3 (Siding Spring),e,50.4439,356.1304,322.4614,7.132172,0.0517454,0.44604585,334.2882,07/14.0/2022,2000,g 11.5,4.0
# From MPC 75705
P/2004 V5 (LINEAR-Hill),e,19.3412,47.7873,87.5891,7.987314,0.0436619,0.44440449,278.8737,07/14.0/2022,2000,g  8.0,4.0
# From MPC 54164
P/2005 E1 (Tubbiolo),e,4.2634,335.5733,193.9194,7.048002,0.0526751,0.37542279,336.7391,07/14.0/2022,2000,g 10.0,4.0
# From MPC 79019
P/2005 J1 (McNaught),e,31.7436,268.8263,338.9407,3.571585,0.1460201,0.56911481,200.2394,07/14.0/2022,2000,g 16.5,4.0
# From MPC 74246
P/2005 L1 (McNaught),e,7.7350,138.2460,149.8940,3.985041,0.1238953,0.21132078,31.2623,07/14.0/2022,2000,g  9.5,4.0
# From MPC 75706
P/2005 S2 (Skiff),e,3.1356,161.2241,229.3458,8.007423,0.0434976,0.19836738,256.5632,07/14.0/2022,2000,g  7.5,4.0
# From MPC 75706
P/2005 SB216 (LONEOS),e,24.1099,1.1308,83.2644,7.142978,0.0516280,0.46443783,293.8130,07/14.0/2022,2000,g 12.0,2.0
# From MPC 73461
P/2005 T3 (Read),e,6.2236,27.6793,6.6722,7.587878,0.0471545,0.17522637,289.6115,07/14.0/2022,2000,g  9.0,4.0
# From MPC 73461
P/2005 T4 (SWAN),e,160.2607,25.8941,41.8075,9.359903,0.0344189,0.92972618,210.7970,07/14.0/2022,2000,g 15.0,4.0
# From MPC 75706
P/2005 T5 (Broughton),e,21.3760,57.0000,304.6662,7.282798,0.0501484,0.55265323,306.5338,07/14.0/2022,2000,g 11.0,4.0
# From MPC 75707
P/2006 HR30 (Siding Spring),e,31.8508,309.8536,117.3506,7.809576,0.0451609,0.84295069,257.0505,07/14.0/2022,2000,g 11.0,4.0
# From MPEC 2022-L66
C/2006 S3 (LONEOS),h,04/17.8757/2012,166.0351,38.6134,140.5573,1.002233,5.157671,2000,2.0,4.0
# From MPC 75707
P/2007 A2 (Christensen),e,26.4864,300.9125,186.7017,6.335314,0.0618090,0.55825125,351.4668,07/14.0/2022,2000,g 13.5,4.0
# From MPC 75707
P/2007 C2 (Catalina),e,8.6102,275.3319,180.1585,6.997286,0.0532488,0.47190536,288.1883,07/14.0/2022,2000,g 10.0,4.0
# From MPC 84315
C/2007 D1 (LINEAR),e,41.5015,171.2365,339.8381,1220,0.0000231,0.99279218,0.0000,06/07.0934/2007,2000,g  3.5,4.0
# From MPEC 2022-M21
C/2007 K1 (Lemmon),e,108.5044,294.6684,52.1983,492.2906,0.0000902,0.98119499,0.0000,05/15.4714/2007,2000,g  6.0,4.0
# From MPC 82314
P/2007 K2 (Gibbs),e,7.6275,188.6344,347.3675,7.273433,0.0502452,0.68300099,278.0730,07/14.0/2022,2000,g 14.0,4.0
# From MPEC 2022-N37
C/2007 M1 (McNaught),e,139.8230,326.8364,52.9080,2056,0.0000106,0.99634645,0.0000,08/13.4199/2008,2000,g  6.0,4.0
# From MPC 60925
P/2007 Q2 (Gilmore),e,10.2027,172.1524,162.8375,5.656446,0.0732637,0.67008242,43.5193,07/14.0/2022,2000,g 16.0,4.0
# From MPC 73462
P/2007 S1 (Zhao),e,5.9618,141.3621,245.2372,3.823089,0.1318507,0.33962007,348.7938,07/14.0/2022,2000,g 13.0,4.0
# From MPC 61994
P/2007 T2 (Kowalski),e,9.7523,3.3777,359.6578,3.045955,0.1854039,0.78565929,268.8584,07/14.0/2022,2000,g 18.5,4.0
# From MPC 63599
C/2007 W1 (Boattini),e,9.9282,333.8993,307.1499,2341,0.0000087,0.99963652,0.0000,06/29.3266/2008,2000,g  9.5,4.0
# From MPC 75709
P/2008 L2 (Hill),e,25.8682,218.0177,141.2580,6.027447,0.0666046,0.61341766,339.9482,07/14.0/2022,2000,g 12.5,4.0
# From MPC 64114
P/2008 O3 (Boattini),e,32.3219,47.5668,341.1526,8.216542,0.0418476,0.69624494,215.8231,07/14.0/2022,2000,g 13.0,4.0
# From MPC 75710
P/2008 Y3 (McNaught),e,38.7768,262.8452,238.0697,8.047866,0.0431701,0.44569057,214.0469,07/14.0/2022,2000,g  8.5,4.0
# From MPC 75710
P/2009 B1 (Boattini),e,22.2315,297.0780,128.8895,6.737481,0.0563583,0.63546416,278.3959,07/14.0/2022,2000,g 13.0,4.0
# From MPC 66466
C/2009 G1 (STEREO),e,108.5725,120.5266,175.4958,461.3163,0.0000995,0.99752999,0.0000,04/17.8985/2009,2000,g  9.0,4.0
# From MPC 75710
P/2009 O3 (Hill),e,16.2881,183.6856,154.4811,7.767120,0.0455317,0.68785103,218.3149,07/14.0/2022,2000,g 12.5,4.0
# From MPC 68902
P/2009 Q5 (McNaught),e,40.9880,160.2790,209.0864,7.430961,0.0486560,0.60974838,228.0835,07/14.0/2022,2000,g 10.0,4.0
# From MPC112389
P/2009 T2 (La Sagra),e,27.5995,215.8870,216.3294,7.719701,0.0459519,0.76622011,210.4452,07/14.0/2022,2000,g 14.0,4.0
# From MPC105235
P/2009 WX51 (Catalina),e,9.5942,31.5783,118.2500,3.082756,0.1820939,0.73954010,110.1661,07/14.0/2022,2000,g 19.0,2.0
# From MPC 74247
P/2009 Y2 (Kowalski),e,29.9558,262.0380,172.1298,6.550065,0.0587944,0.63661705,265.7764,07/14.0/2022,2000,g 13.0,4.0
# From MPC 75711
P/2010 A3 (Hill),e,14.8171,63.6586,42.2685,6.085128,0.0656598,0.73367618,296.1811,07/14.0/2022,2000,g 14.0,4.0
# From MPC 75008
P/2010 C1 (Scotti),e,9.1269,141.8793,3.4340,7.104534,0.0520476,0.26001890,241.3244,07/14.0/2022,2000,g  9.5,4.0
# From MPC 75008
P/2010 D2 (WISE),e,57.0941,319.8854,119.9465,6.720470,0.0565724,0.45134906,256.9166,07/14.0/2022,2000,g 16.0,4.0
# From MPC 75009
P/2010 E2 (Jarnac),e,15.3847,177.8198,8.3168,8.640274,0.0388072,0.71944009,174.3792,07/14.0/2022,2000,g 14.0,4.0
# From MPEC 2021-BE3
C/2010 E3 (WISE),e,96.1373,117.2068,50.5312,231.0365,0.0002807,0.99013947,0.0000,03/28.8885/2010,2000,g 15.0,4.0
# From MPEC 2022-N37
C/2010 G3 (WISE),e,108.4388,313.8100,75.2114,1417,0.0000185,0.99654043,0.0000,04/14.6173/2010,2000,g  8.5,4.0
# From MPEC 2022-N37
C/2010 H1 (Garradd),e,36.3276,347.2542,234.1226,3044,0.0000059,0.99908814,0.0000,06/13.6957/2010,2000,g 13.0,4.0
# From MPC 72851
P/2010 H2 (Vales),e,14.2780,64.1872,128.0205,3.832385,0.1313713,0.19645029,232.5314,07/14.0/2022,2000,g  6.0,4.0
# From MPC 70361
P/2010 H3 (SOHO),e,23.0700,77.0907,26.1523,3.036424,0.1862775,0.98536181,0.0000,02/07.8836/2021,2000,g 20.0,2.0
# From MPC 73463
P/2010 H4 (Scotti),e,2.3178,44.7276,179.3727,6.598379,0.0581498,0.26629220,256.8973,07/14.0/2022,2000,g 10.5,4.0
# From MPC 74637
P/2010 H5 (Scotti),e,14.0576,24.7946,174.8358,7.169381,0.0513430,0.15254395,230.9298,07/14.0/2022,2000,g 13.0,2.0
# From MPC 98558
P/2010 J3 (McMillan),e,13.2702,106.4560,157.5887,8.978949,0.0366324,0.72583561,158.9663,07/14.0/2022,2000,g 11.0,4.0
# From MPC 84315
P/2010 JC81 (WISE),e,38.8128,30.8655,12.4241,8.106480,0.0427027,0.77775264,175.0503,07/14.0/2022,2000,g  9.0,4.0
# From MPC 74248
P/2010 T2 (PANSTARRS),e,7.8866,58.6029,352.7904,5.561671,0.0751443,0.32290536,314.0025,07/14.0/2022,2000,g 11.5,4.0
# From MPC 98558
P/2010 TO20 (LINEAR-Grauer),e,2.4788,43.2856,267.3573,5.832897,0.0699645,0.05561544,350.5114,07/14.0/2022,2000,g  9.0,4.0
# From MPC 82316
P/2010 U1 (Boattini),e,8.2190,280.6848,86.1923,6.503333,0.0594292,0.24907126,269.9952,07/14.0/2022,2000,g  9.5,4.0
# From MPEC 2022-M21
C/2010 U3 (Boattini),e,55.5501,42.9982,88.0418,2409,0.0000083,0.99649547,0.0000,02/25.2321/2019,2000,g  1.0,4.0
# From MPC 79021
P/2010 UH55 (Spacewatch),e,8.0385,232.9102,225.1442,6.654628,0.0574141,0.56359583,236.4196,07/14.0/2022,2000,g 11.0,4.0
# From MPC 75009
P/2010 WK (LINEAR),e,11.4016,11.3345,40.9723,5.762407,0.0712522,0.69041526,307.3828,07/14.0/2022,2000,g 14.5,2.0
# From MPC 84021
P/2011 C2 (Gibbs),e,10.8868,12.1208,160.5892,7.412716,0.0488358,0.26905306,188.4520,07/14.0/2022,2000,g  9.0,4.0
# From MPC 79866
P/2011 FR143 (Lemmon),e,15.9755,190.9490,349.9680,6.862715,0.0548227,0.45053899,228.1796,07/14.0/2022,2000,g 14.0,2.0
# From MPC 82317
P/2011 JB15 (Spacewatch-Boattini),e,19.1472,153.5830,111.0679,7.364343,0.0493177,0.31630335,188.8556,07/14.0/2022,2000,g  9.0,4.0
# From MPC 87913
P/2011 N1 (ASH),e,35.7579,77.5800,330.3714,6.245591,0.0631457,0.54485239,233.9695,07/14.0/2022,2000,g 11.5,4.0
# From MPC 75714
P/2011 NO1 (Elenin),e,15.2449,295.8249,263.7183,5.530241,0.0757858,0.77455157,318.2365,07/14.0/2022,2000,g 15.0,4.0
# From MPEC 2022-ED3
P/2011 P1 (McNaught),e,5.6611,4.2316,349.1107,7.459953,0.0483727,0.32764858,211.2090,07/14.0/2022,2000,g  9.0,4.0
# From MPEC 2022-HC2
